[{"OBJECT_NAME":"CONTINUUM-1","OBJECT_ID":"2023-001AN","EPOCH":"2026-03-09T23:17:35.458656","MEAN_MOTION":15.27981258,"ECCENTRICITY":0.00109493,"INCLINATION":97.3456,"RA_OF_ASC_NODE":133.3964,"ARG_OF_PERICENTER":60.1976,"MEAN_ANOMALY":300.0351,"EPHEMERIS_TYPE":0,"CLASSIFICATION_TYPE":"U","NORAD_CAT_ID":55045,"ELEMENT_SET_NO":999,"REV_AT_EPOCH":17709,"BSTAR":0.00052859897,"MEAN_MOTION_DOT":0.00014395,"MEAN_MOTION_DDOT":0},{"OBJECT_NAME":"STARLINK-32483","OBJECT_ID":"2024-202M","EPOCH":"2026-03-09T12:33:50.280768","MEAN_MOTION":15.27569381,"ECCENTRICITY":0.00013231,"INCLINATION":43.0034,"RA_OF_ASC_NODE":238.8052,"ARG_OF_PERICENTER":272.4638,"MEAN_ANOMALY":87.6062,"EPHEMERIS_TYPE":0,"CLASSIFICATION_TYPE":"U","NORAD_CAT_ID":61856,"ELEMENT_SET_NO":999,"REV_AT_EPOCH":7531,"BSTAR":2.5849135e-5,"MEAN_MOTION_DOT":4.49e-6,"MEAN_MOTION_DDOT":0}]
